COSMOS 2419 (714)       
1 28915U 05050A   16232.74796413  .00000024  00000-0  00000-0 0  9996
2 28915  65.3504  76.0176 0015419 357.5079 303.9403  2.13111002 82905
COSMOS 2425 (716)       
1 29670U 06062A   16232.78458894 -.00000012  00000-0  10000-3 0  9993
2 29670  65.6040 315.0177 0019698 344.0912  41.6548  2.13105017 75119
COSMOS 2426 (717)       
1 29671U 06062B   16232.81310005 -.00000012  00000-0  10000-3 0  9999
2 29671  65.6213 315.1004 0018741 167.1772 100.8873  2.13103009 75116
COSMOS 2424 (715)       
1 29672U 06062C   16232.60627169 -.00000012  00000-0  10000-3 0  9999
2 29672  65.6059 315.0343 0018238 165.7893 119.7827  2.13102436 75109
COSMOS 2433 (720)       
1 32275U 07052A   16233.48875530  .00000019  00000-0  10000-3 0  9992
2 32275  65.3663  75.7652 0000631 255.1129 142.9206  2.13104812 68647
COSMOS 2432 (719)       
1 32276U 07052B   16232.56842264  .00000025  00000-0  10000-3 0  9996
2 32276  65.3785  75.8646 0011081 346.4898  19.1747  2.13104208 68627
COSMOS 2434 (721)       
1 32393U 07065A   16232.62248999 -.00000011  00000-0  00000+0 0  9993
2 32393  65.2219 314.3161 0004692 131.5669 213.4618  2.13102976 67322
COSMOS 2436 (723)       
1 32395U 07065C   16233.13807198 -.00000013  00000-0  10000-3 0  9991
2 32395  65.2348 314.3423 0015209 352.4460 120.1430  2.13102975 67276
COSMOS 2443 (725)       
1 33379U 08046B   16233.11105579  .00000021  00000-0  10000-3 0  9994
2 33379  65.2962  75.1885 0016946 180.3502 192.1975  2.13101037 61500
COSMOS 2456 (730)       
1 36111U 09070A   16233.41751082  .00000049  00000-0  00000+0 0  9993
2 36111  64.1833 193.8652 0006231 298.1270 106.6548  2.13103008 52010
COSMOS 2457 (733)       
1 36112U 09070B   16233.36672674  .00000049  00000-0  00000+0 0  9997
2 36112  64.1656 193.7921 0006725 187.7322 308.0434  2.13101745 52019
COSMOS 2458 (734)       
1 36113U 09070C   16232.78556450  .00000046  00000-0  10000-3 0  9998
2 36113  64.1711 193.8174 0002490 294.2570 163.2804  2.13102019 52003
COSMOS 2459 (731)       
1 36400U 10007A   16232.63082156  .00000024  00000-0  10000-3 0  9996
2 36400  65.2749  74.9377 0027954 357.0037 327.6580  2.13102337 50342
COSMOS 2461 (735)       
1 36401U 10007B   16233.41913582  .00000019  00000-0  10000-3 0  9994
2 36401  65.2663  74.8914 0008323  74.0330  45.9851  2.13102406 50365
COSMOS 2460 (732)       
1 36402U 10007C   16232.76552692  .00000023  00000-0  10000-3 0  9998
2 36402  65.2569  74.8903 0002009  81.8368 298.4923  2.13101838 50353
COSMOS 2465 (737)       
1 37138U 10041B   16232.63853534 -.00000012  00000-0  00000+0 0  9992
2 37138  64.8218 314.4577 0036902 172.7908 227.5682  2.13103583 46422
COSMOS 2464 (736)       
1 37139U 10041C   16232.67698588 -.00000013  00000-0  00000+0 0  9994
2 37139  64.8280 314.4518 0020870  12.0346 242.5056  2.13102877 46423
COSMOS 2471 (701K)      
1 37372U 11009A   16233.18154949  .00000020  00000-0  00000+0 0  9990
2 37372  65.2540  74.8243 0006604 227.1772 245.1129  2.13102834 42631
COSMOS 2474 (742)       
1 37829U 11055A   16232.60979464  .00000046  00000-0  00000-0 0  9990
2 37829  64.5081 194.3314 0010476 254.1836 112.0788  2.13102005 37996
COSMOS 2476 (744)       
1 37867U 11064A   16233.53812884  .00000051  00000-0  00000+0 0  9992
2 37867  64.4879 194.3794 0019427 248.1117 156.1976  2.13102073 37368
COSMOS 2477 (745)       
1 37868U 11064B   16232.68835854  .00000046  00000-0  00000-0 0  9995
2 37868  64.4965 194.4488 0017439 249.5478  42.1192  2.13101961 37293
COSMOS 2475 (743)       
1 37869U 11064C   16233.42944135  .00000050  00000-0  00000+0 0  9996
2 37869  64.5031 194.4129 0022670 273.4417 182.9326  2.13102214 37321
COSMOS 2485 (747)       
1 39155U 13019A   16232.64542757  .00000046  00000-0  00000-0 0  9991
2 39155  64.6573 194.3745 0019704 243.2997 241.2704  2.13102115 25818
COSMOS 2492 (754)       
1 39620U 14012A   16232.67400270  .00000027  00000-0  96536+1 0  9996
2 39620  65.1460  74.8708 0014578 339.7160 200.1834  2.13103597 18763
COSMOS 2500 (755)       
1 40001U 14032A   16233.11276876  .00000020  00000-0  00000+0 0  9999
2 40001  65.0877  74.8772 0005278 187.2780 192.8763  2.13103016 16998
COSMOS 2501 (702K)      
1 40315U 14075A   16232.50462854 -.00000015  00000-0  00000+0 0  9994
2 40315  64.5942 315.8948 0018423 231.4529 203.0966  2.13101779 13389
COSMOS 2514 (751)       
1 41330U 16008A   16232.63592510  .00000023  00000-0  00000+0 0  9995
2 41330  64.8865  75.1125 0008043 204.8506 348.6821  2.13103591  4147
COSMOS 2516 (753)       
1 41554U 16032A   16232.64836331 -.00000014  00000-0  00000+0 0  9994
2 41554  64.7748 315.5804 0012753 219.1455 238.3809  2.13101553  1755
